TDRS 3                  
1 19548U 88091B   26171.38227711 -.00000309  00000+0  00000+0 0  9992
2 19548  12.5990 340.9850 0038300 356.4263  19.9856  1.00272364125424
FLTSATCOM 8 (USA 46)    
1 20253U 89077A   26171.45223306 -.00000377  00000+0  00000+0 0  9991
2 20253  12.4207 351.1441 0004220  57.5068 148.5574  1.00275807260594
SKYNET 4C               
1 20776U 90079A   26162.20198485  .00000132  00000+0  00000+0 0  9995
2 20776  13.3424 349.8525 0002400  96.2313 279.5534  1.00274127130831
TDRS 5                  
1 21639U 91054B   26171.48609933  .00000073  00000+0  00000+0 0  9997
2 21639  14.0706 353.7579 0006201 274.9854   7.2953  1.00276037127741
TDRS 6                  
1 22314U 93003B   26171.04410444 -.00000307  00000+0  00000+0 0  9994
2 22314  14.1828 357.0374 0008209 178.4700  62.8072  1.00270344122431
UFO 2 (USA 95)          
1 22787U 93056A   26171.18380369  .00000114  00000+0  00000+0 0  9998
2 22787  11.8958   3.5382 0004971   9.3128 350.3609  1.00270176118577
USA 99 (MILSTAR-1 1)    
1 22988U 94009A   26170.85322422 -.00000236  00000+0  00000+0 0  9995
2 22988  17.6313  27.6798 0000849 225.3426 312.3366  0.98724155 32972
UFO 4 (USA 108)         
1 23467U 95003A   26171.35478845 -.00000032  00000+0  00000+0 0  9994
2 23467   9.6904  13.2184 0003078  71.6725 123.5778  1.00272715114988
TDRS 7                  
1 23613U 95035B   26170.98181670 -.00000250  00000+0  00000+0 0  9999
2 23613  13.3760 348.1707 0011579  83.0115 279.2998  1.00280526113283
USA 115 (MILSTAR-1 2)   
1 23712U 95060A   26171.22135894 -.00000208  00000+0  00000+0 0  9995
2 23712  14.0740   3.7293 0001604 135.3698 115.8094  1.00364409 32913
INMARSAT 3-F1           
1 23839U 96020A   26171.23030740 -.00000108  00000+0  00000+0 0  9996
2 23839  10.6069  46.6064 0003787  56.4316 149.9351  0.99978301110285
INMARSAT 3-F2           
1 24307U 96053A   26171.46574080 -.00000290  00000+0  00000+0 0  9990
2 24307   9.8639  53.9030 0006603  33.0245 135.6144  1.00002274108958
INMARSAT 3-F3           
1 24674U 96070A   26170.82945198  .00000127  00000+0  00000+0 0  9995
2 24674  10.3236  49.6281 0003272  29.1261 167.6670  0.99983665107933
AMC-3                   
1 24936U 97050A   26171.36345514  .00000032  00000+0  00000+0 0  9996
2 24936   8.1731  63.9526 0004276  28.7988 162.4826  0.99063277 52467
USA 134                 
1 25019U 97065A   26171.39030080 -.00000073  00000+0  00000+0 0  9993
2 25019  12.7884  21.7019 0003372 339.9641 295.1138  1.00268962 32984
INMARSAT 3-F5           
1 25153U 98006B   26171.09611556 -.00000300  00000+0  00000+0 0  9991
2 25153   9.7004  53.2332 0004223  31.4135 164.2527  1.00274648103928
ABS-6                   
1 25924U 99053A   26171.46287499  .00000000  00000+0  00000+0 0  9992
2 25924   0.0231  32.5750 0003808  75.7645 125.9850  1.00269039 97876
UFO 10 (USA 146)        
1 25967U 99063A   26171.38747713 -.00000198  00000+0  00000+0 0  9990
2 25967   9.8747  27.1851 0001926  45.2927 312.6649  1.00270301 97378
ASIASTAR                
1 26107U 00016A   26170.62860089 -.00000342  00000+0  00000+0 0  9996
2 26107   9.1362  58.1299 0004595  30.2265 150.7520  1.00267815 95941
USA 149 (DSP 20)        
1 26356U 00024A   26171.18782242  .00000084  00000+0  00000+0 0  9999
2 26356  13.1731  11.8345 0001966 315.8167 203.0148  1.00276399 32948
TDRS 8                  
1 26388U 00034A   26170.62452755 -.00000206  00000+0  00000+0 0  9993
2 26388  12.6858  31.2997 0005140  29.9330 156.0649  1.00277176 95204
NSS-11                  
1 26554U 00059A   26171.35556845  .00000020  00000+0  00000+0 0  9994
2 26554   2.1358  81.3554 0002909 358.9834 132.2266  1.00272335 41324
USA 153                 
1 26575U 00065A   26170.79469751 -.00000335  00000+0  00000+0 0  9990
2 26575  11.6293  35.4010 0002993  47.0413 246.1317  1.00269130 32959
AMC-6                   
1 26580U 00067A   26171.39489199  .00000084  00000+0  00000+0 0  9993
2 26580   0.1614  83.1922 0003583  14.3540 178.1789  1.00270149 93924
USA 157 (MILSTAR-2 2)   
1 26715U 01009A   26171.41856404  .00000100  00000+0  00000+0 0  9999
2 26715  11.5467  19.7486 0039242 177.4528  72.0947  1.00276594 32970
INTELSAT 902 (IS-902)   
1 26900U 01039A   26171.16820361 -.00000290  00000+0  00000+0 0  9994
2 26900   6.1243  71.7474 0004280  14.2873 192.7993  1.00270935 90729
USA 164 (MILSTAR-2 3)   
1 27168U 02001A   26171.25318352  .00000087  00000+0  00000+0 0  9996
2 27168  11.1840  21.8926 0099678   8.2747 348.4440  1.00267381 32983
INTELSAT 904 (IS-904)   
1 27380U 02007A   26171.10054338 -.00000233  00000+0  00000+0 0  9997
2 27380   6.9283  69.1510 0006584   7.3069 196.5436  1.00270151 51793
DIRECTV 5 (TEMPO 1)     
1 27426U 02023A   26171.41885338 -.00000063  00000+0  00000+0 0  9993
2 27426   4.8871  75.2720 0003240  16.1878 217.8431  1.00272003 88157
INTELSAT 905 (IS-905)   
1 27438U 02027A   26171.36475514  .00000087  00000+0  00000+0 0  9990
2 27438   6.7625  69.7638 0003977  23.7456 169.1624  1.00272920 51394
GALAXY 3C (G-3C)        
1 27445U 02030A   26171.35461541 -.00000158  00000+0  00000+0 0  9996
2 27445   3.7412  77.9368 0001690  28.7445 194.6953  1.00271504 46521
